FENGYUN 1C DEB          
1 31755U 99025CFE 17345.30326654  .00000134  00000-0  93904-4 0  9992
2 31755  98.9105  16.9509 0195470 314.9407 101.4216 14.05025495551527
